ENVISAT                 
1 27386U 02009A   23202.39141948  .00000299  00000+0  11169-3 0  9995
2 27386  98.2325 170.9929 0001383  86.6582  84.7434 14.38380398120879
IDEFIX & ARIANE 42P R/B 
1 27422U 02021B   23202.26328428  .00000351  00000+0  15324-3 0  9992
2 27422  98.4913 142.3589 0012848 137.0888 223.1299 14.29729329104532
AQUA                    
1 27424U 02022A   23202.78854537  .00001109  00000+0  25052-3 0  9998
2 27424  98.2880 147.0873 0002155  75.5529 314.5210 14.58180097128406
CZ-4B R/B               
1 27432U 02024C   23201.08259887  .00000059  00000+0  54127-4 0  9997
2 27432  99.0209 235.9766 0049527 232.7550 181.6320 14.14223961 93105
MIDORI II (ADEOS-II)    
1 27597U 02056A   23201.81025819  .00000408  00000+0  18237-3 0  9990
2 27597  98.6492 145.7696 0000555  35.5417 324.5801 14.27948129 72793
H-2A R/B                
1 27601U 02056E   23201.97133707  .00000360  00000+0  14379-3 0  9999
2 27601  98.1930 191.3414 0072288 151.5152 223.8496 14.32401285 76207
CZ-4B R/B               
1 28059U 03049C   23201.82629966  .00000480  00000+0  12607-3 0  9996
2 28059  98.5617 150.9569 0048440 291.3072  68.2956 14.53228384 46647
CZ-2C R/B               
1 28222U 04012C   23201.76740067  .00007187  00000+0  34832-3 0  9993
2 28222  97.8019 197.2995 0041740 122.8274 237.6989 15.18074208 56568
SL-16 R/B               
1 28353U 04021B   23201.12590372 -.00000213  00000+0 -86327-4 0  9992
2 28353  71.0008  94.1742 0003221  42.6252 317.5120 14.14335315986580
CZ-4B R/B               
1 28415U 04035C   23202.07254599  .00005237  00000+0  30624-3 0  9996
2 28415  97.4658 238.3940 0048521  91.7611 268.9177 15.11288523 33737
CZ-2C R/B               
1 28480U 04046B   23201.82853146  .00000267  00000+0  11514-3 0  9990
2 28480  98.1130 164.2804 0142335 122.2869 239.2193 14.26054502971228
ARIANE 5 R/B            
1 28499U 04049H   23201.82481558  .00001301  00000+0  16301-3 0  9996
2 28499  98.1403 328.3734 0089075 226.8599 294.1780 14.81357680  3073
CZ-2D R/B               
1 28738U 05024B   23201.99827325  .00007561  00000+0  36718-3 0  9998
2 28738  97.3539 202.5967 0009063 222.6044 137.4488 15.18702106992146
SUZAKU (ASTRO-EII)      
1 28773U 05025A   23200.35740033  .00015317  00000+0  51842-3 0  9990
2 28773  31.3857 213.6500 0002872 102.6552 257.4420 15.29389283995628
ALOS (DAICHI)           
1 28931U 06002A   23202.34729465  .00001359  00000+0  26636-3 0  9993
2 28931  97.9896 158.8498 0002241 101.2672 258.8782 14.64286261932761
H-2A R/B                
1 28932U 06002B   23202.29159372  .00004247  00000+0  35492-3 0  9991
2 28932  98.2408 271.0156 0080737 219.3569 140.1767 14.96592515949723
RESURS-DK 1             
1 29228U 06021A   23201.01162942  .00002358  00000+0  17271-3 0  9993
2 29228  69.9339 194.6680 0005067 206.6894 153.4008 15.05012772942186
GENESIS 1               
1 29252U 06029A   23202.38487433  .00009426  00000+0  35481-3 0  9990
2 29252  64.5182 195.4782 0020530 210.8460 149.1463 15.27446337939815
CZ-4B R/B               
1 29507U 06046C   23202.70682405  .00004134  00000+0  29547-3 0  9991
2 29507  97.6844 235.7299 0042264 325.3441  34.5032 15.04326834914883
CZ-2C R/B               
1 31114U 07010B   23201.45764738  .00000152  00000+0  89392-4 0  9992
2 31114  98.2843 352.9277 0058866 216.6027 143.1122 14.19590385843035
COSMO-SKYMED 1          
1 31598U 07023A   23202.79433998  .00000661  00000+0  89608-4 0  9996
2 31598  97.8892  25.7667 0001408  91.4064 268.7310 14.82164404872111
GENESIS 2               
1 31789U 07028A   23201.45830173  .00008028  00000+0  30421-3 0  9994
2 31789  64.4921 242.8551 0056063 257.4395 102.0458 15.26107927886549
COSMOS 2428             
1 31792U 07029A   23202.59511670  .00000004  00000+0  28061-4 0  9997
2 31792  70.9294  62.5640 0006946 184.8998 175.2056 14.12544051828292
SL-16 R/B               
1 31793U 07029B   23201.96815542  .00000308  00000+0  18547-3 0  9997
2 31793  70.9757  35.6278 0001914 280.1190 233.0336 14.14540889829303
KORONAS-FOTON           
1 33504U 09003A   23202.61321275  .00007746  00000+0  34812-3 0  9997
2 33504  82.4398 176.8056 0015782 329.5322  30.4995 15.20873407798677
CZ-2C R/B               
1 37731U 11030B   23201.72673316  .00001215  00000+0  17861-3 0  9993
2 37731  97.7155 174.0847 0056495 237.4131 174.1313 14.76167606647784
H-2A R/B                
1 38341U 12025E   23202.74524315  .00001913  00000+0  21934-3 0  9994
2 38341  98.4514  88.6912 0052609 199.2151 160.7079 14.86260970605000
CUSAT 2 & FALCON 9 R/B  
1 39271U 13055G   23201.78123049  .00034560  00000+0  60149-3 0  9998
2 39271  80.9494 109.2791 0428827 312.6361  43.9426 14.88184634515433
SHIJIAN-16 (SJ-16)      
1 39358U 13057A   23202.77844303  .00001052  00000+0  11942-3 0  9996
2 39358  74.9720 199.0402 0020029 277.9233  81.9679 14.87270860528323
CZ-2C R/B               
1 39364U 13059B   23202.11182688  .00027156  00000+0  57374-3 0  9996
2 39364  97.1006 248.3372 0030256 335.7593  24.2231 15.44644472541465
SL-4 R/B                
1 39679U 14021B   23202.14086123  .00006815  00000+0  29831-3 0  9991
2 39679  51.6117 253.5990 0151676 269.1692  89.1900 15.13435371509702
ALOS-2                  
1 39766U 14029A   23202.64158479  .00002244  00000+0  30721-3 0  9997
2 39766  97.9230 299.0419 0001570  98.1130 262.0259 14.79471921494651
SL-27 R/B               
1 40354U 14084B   23202.08920253  .00014978  00000+0  23110-3 0  9999
2 40354  74.7319 200.7770 0026361 185.4073 174.6866 15.53696953482675
YAOGAN-29               
1 41038U 15069A   23202.75672910  .00000634  00000+0  87951-4 0  9999
2 41038  98.0620 210.1560 0000628 124.6160 235.5111 14.81394426413394
ASTRO-H (HITOMI)        
1 41337U 16012A   23201.75329597  .00002951  00000+0  21745-3 0  9991
2 41337  31.0047  48.4080 0011373  71.2333 288.9536 15.01275359406989
HXMT (HUIYAN)           
1 42758U 17034A   23202.70924284  .00006747  00000+0  39501-3 0  9990
2 42758  43.0163 308.6508 0006173 236.5253 123.5003 15.12313533336595
CZ-2C R/B               
1 43521U 18054D   23202.71994150  .00010473  00000+0  45882-3 0  9992
2 43521  35.1520  38.2628 0069837  29.6866 330.7788 15.19042935280298
AEOLUS                  
1 43600U 18066A   23202.89789211  .00264917  30417-4  55600-3 0  9995
2 43600  96.7141 207.9625 0003369 134.6792 287.3269 15.98940266284480
SAOCOM 1A               
1 43641U 18076A   23202.80273002  .00000580  00000+0  79416-4 0  9994
2 43641  97.8892  28.7854 0001412  88.8297 271.3077 14.82154468258888
H-2A R/B                
1 43682U 18084L   23201.65524314  .00006256  00000+0  38958-3 0  9996
2 43682  98.8918 231.0558 0050876  34.7243 325.7285 15.08959727259260
SAOCOM 1B               
1 46265U 20059A   23202.76643209  .00000596  00000+0  81379-4 0  9996
2 46265  97.8898  27.8289 0001428  92.4685 267.6691 14.82151573156274
CSS (TIANHE)            
1 48274U 21035A   23202.74406520  .00027483  00000+0  33130-3 0  9999
2 48274  41.4749 305.9640 0008879 327.8279  32.2017 15.60117232127231
2022-019U               
1 51842U 22019U   23202.77807394  .00024126  00000+0  66656-3 0  9994
2 51842  97.5289 290.2921 0052943 217.5359 142.2183 15.35608260 77777
CZ-2C R/B               
1 52794U 22058K   23201.74388402  .00005163  00000+0  25600-3 0  9998
2 52794  50.1719  62.7928 0094172 238.1009 121.0757 15.15567517 62589
CZ-2C R/B               
1 53131U 22082D   23202.23074598  .00032873  00000+0  55207-3 0  9998
2 53131  97.3446 217.9863 0036863 112.6734 247.8422 15.50930608 57046
